STARLINK-35497          
1 66241U 25245H   25317.83335647  .00115867  00000+0  78642-3 0  9991
2 66241  53.1570 107.2235 0001171  52.7263  18.5254 15.74134642  3406
STARLINK-35480          
1 66242U 25245J   25317.83335647  .00120507  00000+0  81790-3 0  9997
2 66242  53.1571 107.2119 0001064  89.6325 347.3928 15.74117610  3461
STARLINK-35495          
1 66243U 25245K   25317.83335647  .00065711  00000+0  45064-3 0  9997
2 66243  53.1570 107.2203 0001376  92.5178 340.6704 15.74128401  3468
STARLINK-35517          
1 66244U 25245L   25317.58335648 -.00038416  00000+0 -25943-3 0  9999
2 66244  53.1566 108.4544 0001342 102.5393 355.0047 15.74167845  3206
STARLINK-35503          
1 66245U 25245M   25317.83335647  .00199024  00000+0  13383-2 0  9992
2 66245  53.1574 107.2069 0001194 100.1119 338.8481 15.74068062  3415
STARLINK-35434          
1 66246U 25245N   25317.83335647  .00075089  00000+0  51481-3 0  9999
2 66246  53.1558 107.2027 0000478 118.1119 322.8196 15.74081308  3240
STARLINK-35481          
1 66247U 25245P   25317.83335647  .00047927  00000+0  33046-3 0  9997
2 66247  53.1572 107.1986 0001128  80.5498   2.2484 15.74133467  3462
STARLINK-35416          
1 66248U 25245Q   25317.83335647 -.00035473  00000+0 -23928-3 0  9991
2 66248  53.1572 107.1954 0001107  71.9885  12.7367 15.74154351  3415
STARLINK-35304          
1 66249U 25245R   25317.83335647  .00216940  00000+0  14582-2 0  9995
2 66249  53.1574 107.1827 0000552  72.6791  17.8401 15.74021172  3255
STARLINK-35338          
1 66250U 25245S   25317.83335647  .00157275  00000+0  10630-2 0  9992
2 66250  53.1570 107.1911 0000960  88.5606 358.0758 15.74083396  3364
STARLINK-35485          
1 66251U 25245T   25317.83335647  .00002566  00000+0  21869-4 0  9993
2 66251  53.1572 107.1867 0001084 108.7185 339.8613 15.74124558  3253
STARLINK-35483          
1 66252U 25245U   25317.83335647 -.00051054  00000+0 -34729-3 0  9990
2 66252  53.1571 107.1779 0001194  69.0141  23.4243 15.74129925  3414
