CCSDS_OMM_VERS = 2.0
CREATION_DATE  = 
ORIGINATOR     = 

OBJECT_NAME    = STARLINK-35497
OBJECT_ID      = 2025-245H
CENTER_NAME    = EARTH
REF_FRAME      = TEME
TIME_SYSTEM    = UTC
MEAN_ELEMENT_THEORY = SGP/SGP4

EPOCH          = 2025-11-13T20:00:01.999008
MEAN_MOTION    = 15.74134642
ECCENTRICITY   = .0001171
INCLINATION    = 53.1570
RA_OF_ASC_NODE = 107.2235
ARG_OF_PERICENTER = 52.7263
MEAN_ANOMALY   = 18.5254

EPHEMERIS_TYPE = 0
CLASSIFICATION_TYPE = U
NORAD_CAT_ID   = 66241
ELEMENT_SET_NO = 999
REV_AT_EPOCH   = 340
BSTAR          = .78642E-3
MEAN_MOTION_DOT = .115867E-2
MEAN_MOTION_DDOT = 0

CCSDS_OMM_VERS = 2.0
CREATION_DATE  = 
ORIGINATOR     = 

OBJECT_NAME    = STARLINK-35480
OBJECT_ID      = 2025-245J
CENTER_NAME    = EARTH
REF_FRAME      = TEME
TIME_SYSTEM    = UTC
MEAN_ELEMENT_THEORY = SGP/SGP4

EPOCH          = 2025-11-13T20:00:01.999008
MEAN_MOTION    = 15.74117610
ECCENTRICITY   = .0001064
INCLINATION    = 53.1571
RA_OF_ASC_NODE = 107.2119
ARG_OF_PERICENTER = 89.6325
MEAN_ANOMALY   = 347.3928

EPHEMERIS_TYPE = 0
CLASSIFICATION_TYPE = U
NORAD_CAT_ID   = 66242
ELEMENT_SET_NO = 999
REV_AT_EPOCH   = 346
BSTAR          = .8179E-3
MEAN_MOTION_DOT = .120507E-2
MEAN_MOTION_DDOT = 0

CCSDS_OMM_VERS = 2.0
CREATION_DATE  = 
ORIGINATOR     = 

OBJECT_NAME    = STARLINK-35495
OBJECT_ID      = 2025-245K
CENTER_NAME    = EARTH
REF_FRAME      = TEME
TIME_SYSTEM    = UTC
MEAN_ELEMENT_THEORY = SGP/SGP4

EPOCH          = 2025-11-13T20:00:01.999008
MEAN_MOTION    = 15.74128401
ECCENTRICITY   = .0001376
INCLINATION    = 53.1570
RA_OF_ASC_NODE = 107.2203
ARG_OF_PERICENTER = 92.5178
MEAN_ANOMALY   = 340.6704

EPHEMERIS_TYPE = 0
CLASSIFICATION_TYPE = U
NORAD_CAT_ID   = 66243
ELEMENT_SET_NO = 999
REV_AT_EPOCH   = 346
BSTAR          = .45064E-3
MEAN_MOTION_DOT = .65711E-3
MEAN_MOTION_DDOT = 0

CCSDS_OMM_VERS = 2.0
CREATION_DATE  = 
ORIGINATOR     = 

OBJECT_NAME    = STARLINK-35517
OBJECT_ID      = 2025-245L
CENTER_NAME    = EARTH
REF_FRAME      = TEME
TIME_SYSTEM    = UTC
MEAN_ELEMENT_THEORY = SGP/SGP4

EPOCH          = 2025-11-13T14:00:01.999872
MEAN_MOTION    = 15.74167845
ECCENTRICITY   = .00013426
INCLINATION    = 53.1566
RA_OF_ASC_NODE = 108.4544
ARG_OF_PERICENTER = 102.5393
MEAN_ANOMALY   = 355.0047

EPHEMERIS_TYPE = 0
CLASSIFICATION_TYPE = U
NORAD_CAT_ID   = 66244
ELEMENT_SET_NO = 999
REV_AT_EPOCH   = 320
BSTAR          = -.25942824E-3
MEAN_MOTION_DOT = -.38416E-3
MEAN_MOTION_DDOT = 0

CCSDS_OMM_VERS = 2.0
CREATION_DATE  = 
ORIGINATOR     = 

OBJECT_NAME    = STARLINK-35503
OBJECT_ID      = 2025-245M
CENTER_NAME    = EARTH
REF_FRAME      = TEME
TIME_SYSTEM    = UTC
MEAN_ELEMENT_THEORY = SGP/SGP4

EPOCH          = 2025-11-13T20:00:01.999008
MEAN_MOTION    = 15.74068062
ECCENTRICITY   = .0001194
INCLINATION    = 53.1574
RA_OF_ASC_NODE = 107.2069
ARG_OF_PERICENTER = 100.1119
MEAN_ANOMALY   = 338.8481

EPHEMERIS_TYPE = 0
CLASSIFICATION_TYPE = U
NORAD_CAT_ID   = 66245
ELEMENT_SET_NO = 999
REV_AT_EPOCH   = 341
BSTAR          = .13383E-2
MEAN_MOTION_DOT = .199024E-2
MEAN_MOTION_DDOT = 0

CCSDS_OMM_VERS = 2.0
CREATION_DATE  = 
ORIGINATOR     = 

OBJECT_NAME    = STARLINK-35434
OBJECT_ID      = 2025-245N
CENTER_NAME    = EARTH
REF_FRAME      = TEME
TIME_SYSTEM    = UTC
MEAN_ELEMENT_THEORY = SGP/SGP4

EPOCH          = 2025-11-13T20:00:01.999008
MEAN_MOTION    = 15.74081308
ECCENTRICITY   = .0000478
INCLINATION    = 53.1558
RA_OF_ASC_NODE = 107.2027
ARG_OF_PERICENTER = 118.1119
MEAN_ANOMALY   = 322.8196

EPHEMERIS_TYPE = 0
CLASSIFICATION_TYPE = U
NORAD_CAT_ID   = 66246
ELEMENT_SET_NO = 999
REV_AT_EPOCH   = 324
BSTAR          = .51481E-3
MEAN_MOTION_DOT = .75089E-3
MEAN_MOTION_DDOT = 0

CCSDS_OMM_VERS = 2.0
CREATION_DATE  = 
ORIGINATOR     = 

OBJECT_NAME    = STARLINK-35481
OBJECT_ID      = 2025-245P
CENTER_NAME    = EARTH
REF_FRAME      = TEME
TIME_SYSTEM    = UTC
MEAN_ELEMENT_THEORY = SGP/SGP4

EPOCH          = 2025-11-13T20:00:01.999008
MEAN_MOTION    = 15.74133467
ECCENTRICITY   = .0001128
INCLINATION    = 53.1572
RA_OF_ASC_NODE = 107.1986
ARG_OF_PERICENTER = 80.5498
MEAN_ANOMALY   = 2.2484

EPHEMERIS_TYPE = 0
CLASSIFICATION_TYPE = U
NORAD_CAT_ID   = 66247
ELEMENT_SET_NO = 999
REV_AT_EPOCH   = 346
BSTAR          = .33046E-3
MEAN_MOTION_DOT = .47927E-3
MEAN_MOTION_DDOT = 0

CCSDS_OMM_VERS = 2.0
CREATION_DATE  = 
ORIGINATOR     = 

OBJECT_NAME    = STARLINK-35416
OBJECT_ID      = 2025-245Q
CENTER_NAME    = EARTH
REF_FRAME      = TEME
TIME_SYSTEM    = UTC
MEAN_ELEMENT_THEORY = SGP/SGP4

EPOCH          = 2025-11-13T20:00:01.999008
MEAN_MOTION    = 15.74154351
ECCENTRICITY   = .0001107
INCLINATION    = 53.1572
RA_OF_ASC_NODE = 107.1954
ARG_OF_PERICENTER = 71.9885
MEAN_ANOMALY   = 12.7367

EPHEMERIS_TYPE = 0
CLASSIFICATION_TYPE = U
NORAD_CAT_ID   = 66248
ELEMENT_SET_NO = 999
REV_AT_EPOCH   = 341
BSTAR          = -.23928E-3
MEAN_MOTION_DOT = -.35473E-3
MEAN_MOTION_DDOT = 0

CCSDS_OMM_VERS = 2.0
CREATION_DATE  = 
ORIGINATOR     = 

OBJECT_NAME    = STARLINK-35304
OBJECT_ID      = 2025-245R
CENTER_NAME    = EARTH
REF_FRAME      = TEME
TIME_SYSTEM    = UTC
MEAN_ELEMENT_THEORY = SGP/SGP4

EPOCH          = 2025-11-13T20:00:01.999008
MEAN_MOTION    = 15.74021172
ECCENTRICITY   = .0000552
INCLINATION    = 53.1574
RA_OF_ASC_NODE = 107.1827
ARG_OF_PERICENTER = 72.6791
MEAN_ANOMALY   = 17.8401

EPHEMERIS_TYPE = 0
CLASSIFICATION_TYPE = U
NORAD_CAT_ID   = 66249
ELEMENT_SET_NO = 999
REV_AT_EPOCH   = 325
BSTAR          = .14582E-2
MEAN_MOTION_DOT = .21694E-2
MEAN_MOTION_DDOT = 0

CCSDS_OMM_VERS = 2.0
CREATION_DATE  = 
ORIGINATOR     = 

OBJECT_NAME    = STARLINK-35338
OBJECT_ID      = 2025-245S
CENTER_NAME    = EARTH
REF_FRAME      = TEME
TIME_SYSTEM    = UTC
MEAN_ELEMENT_THEORY = SGP/SGP4

EPOCH          = 2025-11-13T20:00:01.999008
MEAN_MOTION    = 15.74083396
ECCENTRICITY   = .000096
INCLINATION    = 53.1570
RA_OF_ASC_NODE = 107.1911
ARG_OF_PERICENTER = 88.5606
MEAN_ANOMALY   = 358.0758

EPHEMERIS_TYPE = 0
CLASSIFICATION_TYPE = U
NORAD_CAT_ID   = 66250
ELEMENT_SET_NO = 999
REV_AT_EPOCH   = 336
BSTAR          = .1063E-2
MEAN_MOTION_DOT = .157275E-2
MEAN_MOTION_DDOT = 0

CCSDS_OMM_VERS = 2.0
CREATION_DATE  = 
ORIGINATOR     = 

OBJECT_NAME    = STARLINK-35485
OBJECT_ID      = 2025-245T
CENTER_NAME    = EARTH
REF_FRAME      = TEME
TIME_SYSTEM    = UTC
MEAN_ELEMENT_THEORY = SGP/SGP4

EPOCH          = 2025-11-13T20:00:01.999008
MEAN_MOTION    = 15.74124558
ECCENTRICITY   = .0001084
INCLINATION    = 53.1572
RA_OF_ASC_NODE = 107.1867
ARG_OF_PERICENTER = 108.7185
MEAN_ANOMALY   = 339.8613

EPHEMERIS_TYPE = 0
CLASSIFICATION_TYPE = U
NORAD_CAT_ID   = 66251
ELEMENT_SET_NO = 999
REV_AT_EPOCH   = 325
BSTAR          = .21869E-4
MEAN_MOTION_DOT = .2566E-4
MEAN_MOTION_DDOT = 0

CCSDS_OMM_VERS = 2.0
CREATION_DATE  = 
ORIGINATOR     = 

OBJECT_NAME    = STARLINK-35483
OBJECT_ID      = 2025-245U
CENTER_NAME    = EARTH
REF_FRAME      = TEME
TIME_SYSTEM    = UTC
MEAN_ELEMENT_THEORY = SGP/SGP4

EPOCH          = 2025-11-13T20:00:01.999008
MEAN_MOTION    = 15.74129925
ECCENTRICITY   = .0001194
INCLINATION    = 53.1571
RA_OF_ASC_NODE = 107.1779
ARG_OF_PERICENTER = 69.0141
MEAN_ANOMALY   = 23.4243

EPHEMERIS_TYPE = 0
CLASSIFICATION_TYPE = U
NORAD_CAT_ID   = 66252
ELEMENT_SET_NO = 999
REV_AT_EPOCH   = 341
BSTAR          = -.34729E-3
MEAN_MOTION_DOT = -.51054E-3
MEAN_MOTION_DDOT = 0

